{
  "type": "FeatureCollection",
  "features": [
    {
      "type": "Feature",
      "properties": {
        "norad_id": 38250,
        "name": "BEIDOU-2 M3 (C11)",
        "group": "beidou",
        "lat": 13.6961184938354,
        "lon": 121.34400671264419,
        "alt_km": 21551.69197076935,
        "timestamp": "2025-12-21T16:47:55.003363+00:00",
        "meta_object_name": "BEIDOU-2 M3 (C11)",
        "meta_object_id": "2012-018A",
        "meta_epoch": "2025-12-20T22:02:43.406880",
        "meta_mean_motion": 1.86230123,
        "meta_eccentricity": 0.00241142,
        "meta_inclination": 55.9133,
        "meta_ra_of_asc_node": 310.8827,
        "meta_arg_of_pericenter": 275.2065,
        "meta_mean_anomaly": 84.51,
        "meta_ephemeris_type": 0,
        "meta_classification_type": "U",
        "meta_norad_cat_id": 38250,
        "meta_element_set_no": 999,
        "meta_rev_at_epoch": 9262,
        "meta_bstar": 0,
        "meta_mean_motion_dot": -6.6e-07,
        "meta_mean_motion_ddot": 0,
        "tle_line1": "1 38250U 12018A   25354.91855795 -.00000066  00000+0  00000+0 0  9999",
        "tle_line2": "2 38250  55.9133 310.8827 0024114 275.2065  84.5100  1.86230123 92627"
      },
      "geometry": {
        "type": "Point",
        "coordinates": [
          121.34400671264419,
          13.6961184938354
        ]
      }
    },
    {
      "type": "Feature",
      "properties": {
        "norad_id": 38251,
        "name": "BEIDOU-2 M4 (C12)",
        "group": "beidou",
        "lat": -23.746479371074965,
        "lon": 147.44286882398015,
        "alt_km": 21516.53286141935,
        "timestamp": "2025-12-21T16:47:55.003374+00:00",
        "meta_object_name": "BEIDOU-2 M4 (C12)",
        "meta_object_id": "2012-018B",
        "meta_epoch": "2025-12-20T20:24:53.726112",
        "meta_mean_motion": 1.86229788,
        "meta_eccentricity": 0.00153189,
        "meta_inclination": 55.8144,
        "meta_ra_of_asc_node": 310.113,
        "meta_arg_of_pericenter": 278.7848,
        "meta_mean_anomaly": 81.0336,
        "meta_ephemeris_type": 0,
        "meta_classification_type": "U",
        "meta_norad_cat_id": 38251,
        "meta_element_set_no": 999,
        "meta_rev_at_epoch": 9262,
        "meta_bstar": 0,
        "meta_mean_motion_dot": -6.6e-07,
        "meta_mean_motion_ddot": 0,
        "tle_line1": "1 38251U 12018B   25354.85062183 -.00000066  00000+0  00000+0 0  9994",
        "tle_line2": "2 38251  55.8144 310.1130 0015318 278.7848  81.0336  1.86229788 92620"
      },
      "geometry": {
        "type": "Point",
        "coordinates": [
          147.44286882398015,
          -23.746479371074965
        ]
      }
    },
    {
      "type": "Feature",
      "properties": {
        "norad_id": 38775,
        "name": "BEIDOU-2 M6 (C14)",
        "group": "beidou",
        "lat": 34.873567056510836,
        "lon": 96.36347601205551,
        "alt_km": 21507.84198394774,
        "timestamp": "2025-12-21T16:47:55.003386+00:00",
        "meta_object_name": "BEIDOU-2 M6 (C14)",
        "meta_object_id": "2012-050B",
        "meta_epoch": "2025-12-21T02:21:46.465344",
        "meta_mean_motion": 1.86230924,
        "meta_eccentricity": 0.00113708,
        "meta_inclination": 56.3853,
        "meta_ra_of_asc_node": 68.7901,
        "meta_arg_of_pericenter": 343.4825,
        "meta_mean_anomaly": 16.5255,
        "meta_ephemeris_type": 0,
        "meta_classification_type": "U",
        "meta_norad_cat_id": 38775,
        "meta_element_set_no": 999,
        "meta_rev_at_epoch": 8999,
        "meta_bstar": 0,
        "meta_mean_motion_dot": -3.7e-07,
        "meta_mean_motion_ddot": 0,
        "tle_line1": "1 38775U 12050B   25355.09845446 -.00000037  00000+0  00000+0 0  9997",
        "tle_line2": "2 38775  56.3853  68.7901 0011370 343.4825  16.5255  1.86230924 89998"
      },
      "geometry": {
        "type": "Point",
        "coordinates": [
          96.36347601205551,
          34.873567056510836
        ]
      }
    },
    {
      "type": "Feature",
      "properties": {
        "norad_id": 38953,
        "name": "BEIDOU-2 G6 (C02)",
        "group": "beidou",
        "lat": -0.5935877585659189,
        "lon": 66.52357450127116,
        "alt_km": 35768.95642778066,
        "timestamp": "2025-12-21T16:47:55.003422+00:00",
        "meta_object_name": "BEIDOU-2 G6 (C02)",
        "meta_object_id": "2012-059A",
        "meta_epoch": "2025-12-21T08:27:34.104384",
        "meta_mean_motion": 1.00268734,
        "meta_eccentricity": 0.0008279,
        "meta_inclination": 3.9699,
        "meta_ra_of_asc_node": 75.4224,
        "meta_arg_of_pericenter": 292.346,
        "meta_mean_anomaly": 293.2331,
        "meta_ephemeris_type": 0,
        "meta_classification_type": "U",
        "meta_norad_cat_id": 38953,
        "meta_element_set_no": 999,
        "meta_rev_at_epoch": 4812,
        "meta_bstar": 0,
        "meta_mean_motion_dot": -1.54e-06,
        "meta_mean_motion_ddot": 0,
        "tle_line1": "1 38953U 12059A   25355.35247806 -.00000154  00000+0  00000+0 0  9999",
        "tle_line2": "2 38953   3.9699  75.4224 0008279 292.3460 293.2331  1.00268734 48121"
      },
      "geometry": {
        "type": "Point",
        "coordinates": [
          66.52357450127116,
          -0.5935877585659189
        ]
      }
    },
    {
      "type": "Feature",
      "properties": {
        "norad_id": 40549,
        "name": "BEIDOU-3S IGSO-1S (C31)",
        "group": "beidou",
        "lat": 29.851976172864607,
        "lon": 88.295489000088,
        "alt_km": 35688.42527685488,
        "timestamp": "2025-12-21T16:47:55.003450+00:00",
        "meta_object_name": "BEIDOU-3S IGSO-1S (C31)",
        "meta_object_id": "2015-019A",
        "meta_epoch": "2025-12-18T19:55:38.829792",
        "meta_mean_motion": 1.00292047,
        "meta_eccentricity": 0.0036331,
        "meta_inclination": 49.5404,
        "meta_ra_of_asc_node": 297.6395,
        "meta_arg_of_pericenter": 194.0028,
        "meta_mean_anomaly": 349.3621,
        "meta_ephemeris_type": 0,
        "meta_classification_type": "U",
        "meta_norad_cat_id": 40549,
        "meta_element_set_no": 999,
        "meta_rev_at_epoch": 3926,
        "meta_bstar": 0,
        "meta_mean_motion_dot": -1.83e-06,
        "meta_mean_motion_ddot": 0,
        "tle_line1": "1 40549U 15019A   25352.83031053 -.00000183  00000+0  00000+0 0  9999",
        "tle_line2": "2 40549  49.5404 297.6395 0036331 194.0028 349.3621  1.00292047 39264"
      },
      "geometry": {
        "type": "Point",
        "coordinates": [
          88.295489000088,
          29.851976172864607
        ]
      }
    },
    {
      "type": "Feature",
      "properties": {
        "norad_id": 40748,
        "name": "BEIDOU-3S M2S (C58)",
        "group": "beidou",
        "lat": 51.15454540443293,
        "lon": 8.376709553085675,
        "alt_km": 21553.760463393242,
        "timestamp": "2025-12-21T16:47:55.003467+00:00",
        "meta_object_name": "BEIDOU-3S M2S (C58)",
        "meta_object_id": "2015-037A",
        "meta_epoch": "2025-12-21T01:20:10.923072",
        "meta_mean_motion": 1.86229523,
        "meta_eccentricity": 0.0011943,
        "meta_inclination": 55.0313,
        "meta_ra_of_asc_node": 308.1782,
        "meta_arg_of_pericenter": 270.3499,
        "meta_mean_anomaly": 89.5076,
        "meta_ephemeris_type": 0,
        "meta_classification_type": "U",
        "meta_norad_cat_id": 40748,
        "meta_element_set_no": 999,
        "meta_rev_at_epoch": 7080,
        "meta_bstar": 0,
        "meta_mean_motion_dot": -6.4e-07,
        "meta_mean_motion_ddot": 0,
        "tle_line1": "1 40748U 15037A   25355.05568198 -.00000064  00000+0  00000+0 0  9990",
        "tle_line2": "2 40748  55.0313 308.1782 0011943 270.3499  89.5076  1.86229523 70801"
      },
      "geometry": {
        "type": "Point",
        "coordinates": [
          8.376709553085675,
          51.15454540443293
        ]
      }
    },
    {
      "type": "Feature",
      "properties": {
        "norad_id": 40749,
        "name": "BEIDOU-3S M1S (C57)",
        "group": "beidou",
        "lat": -54.171665342251046,
        "lon": -127.45638311964542,
        "alt_km": 21530.33083946209,
        "timestamp": "2025-12-21T16:47:55.003479+00:00",
        "meta_object_name": "BEIDOU-3S M1S (C57)",
        "meta_object_id": "2015-037B",
        "meta_epoch": "2025-12-21T06:50:01.997376",
        "meta_mean_motion": 1.86253999,
        "meta_eccentricity": 0.0003648,
        "meta_inclination": 55.0276,
        "meta_ra_of_asc_node": 308.16,
        "meta_arg_of_pericenter": 1.485,
        "meta_mean_anomaly": 358.5113,
        "meta_ephemeris_type": 0,
        "meta_classification_type": "U",
        "meta_norad_cat_id": 40749,
        "meta_element_set_no": 999,
        "meta_rev_at_epoch": 7081,
        "meta_bstar": 0,
        "meta_mean_motion_dot": -6.3e-07,
        "meta_mean_motion_ddot": 0,
        "tle_line1": "1 40749U 15037B   25355.28474534 -.00000063  00000+0  00000+0 0  9995",
        "tle_line2": "2 40749  55.0276 308.1600 0003648   1.4850 358.5113  1.86253999 70812"
      },
      "geometry": {
        "type": "Point",
        "coordinates": [
          -127.45638311964542,
          -54.171665342251046
        ]
      }
    }
  ]
}